C/2022 A2 (PANSTARRS),h,02/18.2897/2023,108.2060,171.6345,88.3721,1.000186,1.734813,2000,9.5,4.0
# From MPEC 2026-E44
C/2022 A3 (Lemmon-ATLAS),e,88.3628,325.4484,234.8992,987.7191,0.0000318,0.99624863,0.0000,09/29.1680/2023,2000,g  8.0,4.0
# From MPEC 2026-E44
P/2022 BV9 (Lemmon),e,11.9212,337.3013,16.2447,4.367415,0.1079860,0.23316810,218.7536,05/08.0/2026,2000,g  9.5,4.0
# From MPEC 2026-E44
P/2022 C1 (PANSTARRS),e,4.7635,113.0947,9.5430,7.239393,0.0506000,0.44919957,83.1793,05/08.0/2026,2000,g 12.0,4.0
# From MPEC 2026-E44
P/2022 C2 (PANSTARRS),e,9.9806,135.2421,89.1363,6.032616,0.0665190,0.44244390,91.1627,05/08.0/2026,2000,g 12.5,4.0
# From MPEC 2026-E44
P/2022 C3 (PANSTARRS),e,12.8241,139.0390,93.7849,9.616160,0.0330523,0.54570574,46.5252,05/08.0/2026,2000,g 11.5,4.0
# From MPEC 2026-E44
P/2022 D1 (PANSTARRS),e,44.0511,47.9258,88.6994,7.408053,0.0488819,0.54819317,83.7176,05/08.0/2026,2000,g 12.5,4.0
# From MPEC 2022-L66
P/2022 E1 (Christensen),e,19.0072,113.3396,114.8094,3.777544,0.1342424,0.22063033,191.9032,05/08.0/2026,2000,g 13.5,4.0
# From MPEC 2026-FC3
C/2022 E2 (ATLAS),h,09/14.3128/2024,137.1410,125.3962,41.7845,1.000695,3.667780,2000,5.0,4.0
# From MPEC 2026-E44
C/2022 E3 (ZTF),h,01/12.3079/2023,109.1817,302.4864,145.8703,1.000037,1.116780,2000,7.5,4.0
# From MPEC 2026-E44
C/2022 F1 (ATLAS),e,57.9811,350.6365,278.3990,64675,0.0000001,0.99990752,0.0000,08/06.2975/2022,2000,g  7.0,4.0
# From MPEC 2026-E44
C/2022 H1 (PANSTARRS),e,49.8652,6.3044,246.2900,864.5639,0.0000388,0.99110734,0.0000,01/18.4670/2024,2000,g  6.0,4.0
# From MPEC 2026-E44
C/2022 JK5 (PANSTARRS),e,16.8276,59.6528,247.3548,43.44594,0.0034418,0.93795549,3.8049,05/08.0/2026,2000,g 11.0,4.0
# From MPEC 2026-E44
C/2022 L2 (ATLAS),h,03/11.9248/2024,129.3100,39.2526,199.9247,1.000282,2.694349,2000,6.5,4.0
# From MPEC 2026-G41
C/2022 N2 (PANSTARRS),h,08/01.0763/2025,5.5032,319.7305,75.4537,1.003960,3.826179,2000,6.0,4.0
# From MPEC 2026-E44
C/2022 O1 (ATLAS),h,02/14.6914/2022,71.0727,49.9029,268.9285,1.000343,7.435217,2000,6.0,4.0
# From MPEC 2026-FC5
P/2022 P2 (ZTF),e,12.4416,291.1673,137.8161,4.493527,0.1034721,0.55763771,144.5644,05/08.0/2026,2000,g 12.5,4.0
# From MPEC 2026-G41
C/2022 QE78 (ATLAS),e,36.6585,119.8920,0.6584,1635,0.0000149,0.99664974,0.0000,09/12.1935/2025,2000,g  5.0,4.0
# From MPEC 2026-E44
P/2022 R1 (PANSTARRS),e,7.3912,175.5785,221.6019,7.116046,0.0519213,0.49967898,49.2523,05/08.0/2026,2000,g 11.5,4.0
# From MPEC 2026-E44
C/2022 R3 (Leonard),h,03/05.9512/2023,43.0583,8.2691,72.9618,1.001443,5.134935,2000,9.0,4.0
# From MPEC 2026-E44
P/2022 R5 (PANSTARRS),e,15.2924,115.0392,240.4670,3.070926,0.1831471,0.19447348,264.3997,05/08.0/2026,2000,g 16.0,4.0
# From MPEC 2026-G41
C/2022 R6 (PANSTARRS),h,08/27.1380/2025,57.0336,150.7762,319.9995,1.005005,6.566286,2000,5.0,4.0
# From MPEC 2026-E44
P/2022 S1 (PANSTARRS),e,34.5619,136.0844,262.8575,6.408082,0.0607592,0.50718462,82.5491,05/08.0/2026,2000,g 13.0,4.0
# From MPEC 2026-E44
C/2022 S4 (Lemmon),e,101.1975,220.1788,268.5565,1429,0.0000182,0.99806760,0.0000,07/18.7906/2024,2000,g  8.0,4.0
# From MPEC 2026-E44
C/2022 T1 (Lemmon),h,02/17.5525/2024,22.5377,236.9006,324.2996,1.000673,3.443434,2000,9.0,4.0
# From MPEC 2026-E44
C/2022 U1 (Leonard),h,03/26.2257/2024,128.1401,72.5330,78.6173,1.000682,4.201770,2000,8.5,4.0
# From MPEC 2026-E44
C/2022 U3 (Bok),e,33.6612,272.7866,189.1580,10565,0.0000009,0.99954299,0.0000,07/28.6900/2024,2000,g  7.5,4.0
# From MPEC 2026-E44
C/2022 U4 (Bok),e,52.0603,132.9185,88.9633,3198,0.0000054,0.99909464,0.0000,08/03.7704/2023,2000,g 10.5,4.0
# From MPEC 2026-E44
C/2022 V2 (Lemmon),e,98.9097,332.8305,168.9809,36.67152,0.0044382,0.94366536,4.0753,05/08.0/2026,2000,g 12.0,4.0
# From MPEC 2026-E44
P/2022 W1 (Rankin),e,13.4606,38.8432,17.9680,6.977760,0.0534724,0.51612190,71.1282,05/08.0/2026,2000,g 12.5,4.0
# From MPEC 2026-E44
C/2022 W2 (ATLAS),e,63.4905,320.4207,123.3563,340.5539,0.0001568,0.99081614,0.0000,03/08.5683/2023,2000,g 11.5,4.0
# From MPEC 2026-E43
C/2023 A3 (Tsuchinshan-ATLAS),h,09/27.7876/2024,139.1049,21.6378,308.5611,1.000169,0.391523,2000,6.5,3.2
# From MPEC 2026-E44
P/2023 B1 (PANSTARRS),e,14.5865,78.5650,81.9550,7.071829,0.0524091,0.13145451,57.4600,05/08.0/2026,2000,g  5.5,4.0
# From MPEC 2026-E44
P/2023 B3 (PANSTARRS),e,9.1557,153.9696,240.3898,4.552546,0.1014665,0.12182285,210.1770,05/08.0/2026,2000,g 10.5,4.0
# From MPEC 2026-FC3
C/2023 C2 (ATLAS),e,48.3224,301.0063,357.4189,1668,0.0000145,0.99858016,0.0000,11/16.6771/2024,2000,g  7.0,4.0
# From MPEC 2026-G41
C/2023 F3 (ATLAS),h,02/02.7570/2025,145.9627,109.4685,265.5588,1.002841,5.191691,2000,6.0,4.0
# From MPC191587
C/2023 H1 (PANSTARRS),e,21.7828,292.6460,333.7249,743.1991,0.0000486,0.99401685,0.0000,11/28.4821/2024,2000,g  8.5,4.0
# From MPEC 2026-E44
C/2023 H3 (PANSTARRS),e,2.4883,55.0766,193.2344,13.61622,0.0196164,0.61590514,15.8893,05/08.0/2026,2000,g 10.0,4.0
# From MPEC 2026-FR0
C/2023 H5 (Lemmon),h,06/30.4329/2025,97.8549,159.4722,60.1227,1.000589,4.312912,2000,7.0,4.0
# From MPEC 2026-E44
P/2023 JN16 (Lemmon),e,3.7022,11.7728,353.5197,2.697833,0.2224239,0.14783796,109.4756,05/08.0/2026,2000,g 14.0,4.0
# From MPEC 2026-E44
P/2023 M1 (PANSTARRS),e,12.2921,216.8651,79.6871,6.837902,0.0551213,0.58662889,48.2824,05/08.0/2026,2000,g 13.5,4.0
# From MPEC 2026-E44
P/2023 M2 (PANSTARRS),e,19.7124,83.2574,243.7578,5.588875,0.0745963,0.36905837,75.7197,05/08.0/2026,2000,g 12.5,4.0
# From MPEC 2026-E44
P/2023 M4 (ATLAS),e,7.5920,296.2693,320.3734,5.442171,0.0776329,0.27916447,115.3780,05/08.0/2026,2000,g  7.5,4.0
# From MPEC 2026-E44
C/2023 P1 (Nishimura),e,132.4845,66.7762,116.1819,55.88262,0.0023593,0.99599582,0.0000,09/17.4919/2023,2000,g 10.0,4.0
# From MPEC 2026-E44
C/2023 Q1 (PANSTARRS),h,12/01.0855/2024,36.6426,7.1242,84.4278,1.004737,2.576430,2000,10.0,4.0
# From MPEC 2026-E44
C/2023 Q2 (PANSTARRS),e,104.0615,92.6767,171.6511,328.0868,0.0001659,0.99022281,0.0000,06/23.7774/2024,2000,g 11.5,4.0
# From MPEC 2026-G41
C/2023 R1 (PANSTARRS),h,04/13.3808/2026,149.3147,62.5697,144.2604,1.002369,3.570069,2000,6.0,4.0
# From MPEC 2026-E44
C/2023 R2 (PANSTARRS),h,08/12.2328/2024,30.6974,188.8579,337.3457,1.000383,0.904820,2000,10.5,4.0
# From MPEC 2026-E44
C/2023 RN3 (ATLAS),e,10.3517,207.0654,130.6208,10.15850,0.0304411,0.48977167,36.6518,05/08.0/2026,2000,g  7.5,4.0
# From MPEC 2026-EC7
C/2023 RS61 (PANSTARRS),e,19.9469,347.0356,119.5451,11.89428,0.0240269,0.32795810,337.3949,05/08.0/2026,2000,g  6.8,4.0
# From MPEC 2026-E44
P/2023 S1 (PANSTARRS),e,9.1575,317.2859,180.3654,3.845056,0.1307224,0.31852861,57.2083,05/08.0/2026,2000,g 11.5,4.0
# From MPEC 2026-E44
P/2023 T1 (PANSTARRS),e,6.6120,249.5799,202.9175,4.226896,0.1134153,0.33306957,81.0966,05/08.0/2026,2000,g 14.0,4.0
# From MPEC 2026-E44
C/2023 T3 (Fuls),e,27.2174,246.0017,302.8581,990.6692,0.0000316,0.99641819,0.0000,01/25.4525/2025,2000,g  8.5,4.0
# From MPEC 2026-E44
C/2023 TD22 (Lemmon),e,170.4878,5.5806,32.5307,48.30964,0.0029353,0.95124029,1.7574,05/08.0/2026,2000,g 12.5,4.0
# From MPC191587
C/2023 U1 (Fuls),e,108.1482,305.7995,255.6712,4340,0.0000034,0.99885404,0.0000,10/13.2136/2024,2000,g  8.0,4.0
# From MPEC 2026-FR0
C/2023 V1 (Lemmon),h,07/13.0714/2025,102.0075,15.0535,103.3217,1.000340,5.092660,2000,8.5,4.0
# From MPEC 2026-FC5
P/2023 V2 (PANSTARRS),e,9.8883,95.4728,330.5143,7.215093,0.0508559,0.56964616,41.9353,05/08.0/2026,2000,g 13.5,4.0
# From MPEC 2026-E44
C/2023 V3 (PANSTARRS),e,40.6264,91.2650,291.8121,12.69018,0.0218023,0.64558052,22.0467,05/08.0/2026,2000,g 11.5,4.0
# From MPEC 2026-E44
C/2023 V4 (Camarasa-Duszanowicz),h,05/30.4583/2024,67.1027,66.3259,50.8854,1.001310,1.122164,2000,12.0,4.0
# From MPEC 2026-E44
P/2023 V6 (PANSTARRS),e,3.9834,189.3842,191.3738,5.272649,0.0814068,0.17541968,102.9395,05/08.0/2026,2000,g 11.5,4.0
# From MPEC 2026-E44
C/2023 X1 (Leonard),e,110.5946,136.9619,321.4918,155.4782,0.0005084,0.99387217,0.0000,10/17.7992/2023,2000,g 13.5,3.2
# From MPEC 2026-FR0
C/2023 X2 (Lemmon),h,12/28.5068/2025,76.9808,66.3022,64.8053,1.000105,5.088623,2000,8.5,3.2
# From MPEC 2026-E44
P/2023 X3 (PANSTARRS),e,4.4828,62.0186,40.9469,4.247516,0.1125905,0.28609335,83.9448,05/08.0/2026,2000,g 15.5,4.0
# From MPEC 2026-E44
C/2023 X4 (Hogan),e,11.5902,28.7700,100.6448,9.933208,0.0314825,0.63154954,22.4364,05/08.0/2026,2000,g 12.0,4.0
# From MPEC 2026-E44
C/2023 X7 (PANSTARRS),e,69.1275,119.2056,354.3877,3949,0.0000040,0.99877934,0.0000,05/14.9515/2025,2000,g  9.0,4.0
# From MPEC 2026-E44
P/2023 Y2 (Gibbs),e,6.9916,79.2311,16.9538,3.748651,0.1357974,0.39209928,136.0419,05/08.0/2026,2000,g 15.5,4.0
# From MPEC 2026-G41
C/2024 A1 (ATLAS),e,94.5051,112.1399,353.1957,13434,0.0000006,0.99971160,0.0000,06/12.9581/2025,2000,g  7.0,4.0
# From MPEC 2026-E44
C/2024 A2 (ATLAS),e,119.1184,78.1718,295.5043,32.13803,0.0054097,0.94149063,3.9997,05/08.0/2026,2000,g 12.5,4.0
# From MPEC 2026-E44
C/2024 B1 (Lemmon),h,10/07.7888/2024,70.8929,79.1882,66.2291,1.001246,1.633894,2000,13.0,4.0
# From MPEC 2026-E44
C/2024 B2 (Lemmon),e,99.8729,294.3878,130.3185,1194,0.0000239,0.99658327,0.0000,10/05.2710/2023,2000,g 11.5,4.0
# From MPEC 2026-E44
C/2024 C1 (PANSTARRS),e,14.2257,83.8119,94.5198,10.59837,0.0285658,0.58358910,17.5566,05/08.0/2026,2000,g 11.5,4.0
# From MPEC 2026-E44
C/2024 C2 (PANSTARRS),e,27.2835,66.4563,87.6451,16.25338,0.0150414,0.44675277,6.3305,05/08.0/2026,2000,g  6.0,4.0
# From MPEC 2026-E44
C/2024 C3 (PANSTARRS),e,22.4472,359.6959,159.7782,11.68421,0.0246777,0.42533329,22.4556,05/08.0/2026,2000,g  9.0,4.0
# From MPEC 2026-E43
C/2024 D1 (Lemmon),e,132.4478,179.6525,125.8034,30694,0.0000002,0.99978200,0.0000,12/03.6393/2027,2000,g  7.3,4.0
# From MPEC 2026-G41
C/2024 E1 (Wierzchos),h,01/20.7726/2026,75.2390,108.0799,243.6259,1.000245,0.566147,2000,7.0,4.0
# From MPEC 2026-E44
C/2024 E2 (Bok),e,155.6527,135.6595,358.2142,51.09013,0.0026990,0.84929710,2.4971,05/08.0/2026,2000,g  8.0,4.0
# From MPEC 2026-E44
